SPACEMOBILE-003         
1 61045U 24163A   26191.41571764 -.00000084  00000+0  10927-4 0  9991
2 61045  52.9615 202.6161 0005791 185.1427 174.9508 15.20785714101303
SPACEMOBILE-005         
1 61046U 24163B   26191.99068128  .00003338  00000+0  16421-3 0  9998
2 61046  52.9773 199.9229 0008771 183.0473 177.0469 15.20765328101388
SPACEMOBILE-001         
1 61047U 24163C   26191.06904487  .00000518  00000+0  37895-4 0  9990
2 61047  52.9749 203.8741 0007553 178.7608 181.3406 15.20815495101249
SPACEMOBILE-002         
1 61048U 24163D   26192.03876027  .00008243  00000+0  38281-3 0  9999
2 61048  52.9623 199.4399 0006620 180.9990 179.0992 15.20841812101395
SPACEMOBILE-004         
1 61049U 24163E   26190.57554382 -.00014088  00000+0 -61665-3 0  9992
2 61049  52.9654 205.9666 0008113 207.5207 152.5359 15.20814564101179
SPACEMOBILE-001 DEB     
1 62369U 24163F   26191.36213669  .00007250  00000+0  21900-3 0  9995
2 62369  52.9915 170.2378 0005931 233.9859 126.0593 15.35327750 90063
SPACEMOBILE-002 DEB     
1 62370U 24163G   26191.30077546  .00016405  00000+0  36629-3 0  9999
2 62370  52.9402 154.9708 0004492 267.6458  92.4031 15.43693149101931
SPACEMOBILE-003 DEB     
1 62371U 24163H   26189.64170933  .00014206  00000+0  34383-3 0  9990
2 62371  52.9682 169.6526 0005675 212.5674 147.4980 15.41385961 95198
SPACEMOBILE-004 DEB     
1 62372U 24163J   26191.27873014  .00010988  00000+0  27468-3 0  9992
2 62372  52.9822 161.5022 0002842 241.7246 118.3470 15.40670437 98513
SPACEMOBILE-005 DEB     
1 62373U 24163K   26190.99132796  .00006434  00000+0  20018-3 0  9991
2 62373  52.9723 176.8636 0005888 210.3831 149.6829 15.34590181101621
SPACEMOBILE-006         
1 67232U 25309A   26191.47248612  .00000213  00000+0  25498-4 0  9999
2 67232  52.9937 224.9712 0010446 200.1439 159.9144 15.18647033 30136
SPACEMOBILE-008         
1 69589U 26139A   26191.92463880  .00000132  00000+0  24411-4 0  9998
2 69589  52.9942 154.7960 0004851  46.4367 313.7027 15.12798577  3570
SPACEMOBILE-009         
1 69590U 26139B   26191.92629946  .00000086  00000+0  21885-4 0  9997
2 69590  52.9932 154.8015 0005090  41.8205 318.3174 15.12691782  3573
SPACEMOBILE-010         
1 69591U 26139C   26191.92893653  .00000038  00000+0  19202-4 0  9993
2 69591  52.9937 154.8204 0004992  33.2635 326.8669 15.12522765  3589
